[{"OBJECT_NAME":"YAOGAN-40 03A","OBJECT_ID":"2025-199A","EPOCH":"2026-03-09T23:03:31.278816","MEAN_MOTION":14.26419606,"ECCENTRICITY":0.00148498,"INCLINATION":85.9829,"RA_OF_ASC_NODE":86.7514,"ARG_OF_PERICENTER":35.6299,"MEAN_ANOMALY":324.588,"EPHEMERIS_TYPE":0,"CLASSIFICATION_TYPE":"U","NORAD_CAT_ID":65544,"ELEMENT_SET_NO":999,"REV_AT_EPOCH":2627,"BSTAR":0.00017546994,"MEAN_MOTION_DOT":4.42e-6,"MEAN_MOTION_DDOT":0},{"OBJECT_NAME":"CZ-6A DEB","OBJECT_ID":"2024-140EP","EPOCH":"2026-03-09T14:31:41.073600","MEAN_MOTION":14.26761123,"ECCENTRICITY":0.0021069,"INCLINATION":88.9424,"RA_OF_ASC_NODE":281.5918,"ARG_OF_PERICENTER":73.7727,"MEAN_ANOMALY":286.5783,"EPHEMERIS_TYPE":0,"CLASSIFICATION_TYPE":"U","NORAD_CAT_ID":60764,"ELEMENT_SET_NO":999,"REV_AT_EPOCH":8187,"BSTAR":0.00016834,"MEAN_MOTION_DOT":4.23e-6,"MEAN_MOTION_DDOT":0}]
